[{"CCSDS_OMM_VERS":"2.0","COMMENT":"GENERATED VIA SPACE-TRACK.ORG API","CREATION_DATE":"2020-12-02T18:56:12","ORIGINATOR":"18 SPCS","OBJECT_NAME":"STARLINK-1562","OBJECT_ID":"2020-055AG","CENTER_NAME":"EARTH","REF_FRAME":"TEME","TIME_SYSTEM":"UTC","MEAN_ELEMENT_THEORY":"SGP4","EPOCH":"2020-12-02T02:40:32.075904","MEAN_MOTION":"15.05603163","ECCENTRICITY":"0.00019150","INCLINATION":"53.0034","RA_OF_ASC_NODE":"111.8947","ARG_OF_PERICENTER":"97.1730","MEAN_ANOMALY":"262.9476","EPHEMERIS_TYPE":"0","CLASSIFICATION_TYPE":"U","NORAD_CAT_ID":"46057","ELEMENT_SET_NO":"999","REV_AT_EPOCH":"1857","BSTAR":"0.00024026000000","MEAN_MOTION_DOT":"0.00003225","MEAN_MOTION_DDOT":"0.0000000000000","SEMIMAJOR_AXIS":"6927.791","PERIOD":"95.642","APOAPSIS":"550.983","PERIAPSIS":"548.330","OBJECT_TYPE":"PAYLOAD","RCS_SIZE":"LARGE","COUNTRY_CODE":"US","LAUNCH_DATE":"2020-08-07","SITE":"AFETR","DECAY_DATE":null,"FILE":"2895938","GP_ID":"166734415","TLE_LINE0":"0 STARLINK-1562","TLE_LINE1":"1 46057U 20055AG  20337.11148236  .00003225  00000-0  24026-3 0  9994","TLE_LINE2":"2 46057  53.0034 111.8947 0001915  97.1730 262.9476 15.05603163 18570"},{"CCSDS_OMM_VERS":"2.0","COMMENT":"GENERATED VIA SPACE-TRACK.ORG API","CREATION_DATE":"2020-12-02T19:24:44","ORIGINATOR":"18 SPCS","OBJECT_NAME":"STARLINK-1562","OBJECT_ID":"2020-055AG","CENTER_NAME":"EARTH","REF_FRAME":"TEME","TIME_SYSTEM":"UTC","MEAN_ELEMENT_THEORY":"SGP4","EPOCH":"2020-12-02T02:40:32.075904","MEAN_MOTION":"15.05603163","ECCENTRICITY":"0.00019150","INCLINATION":"53.0034","RA_OF_ASC_NODE":"111.8947","ARG_OF_PERICENTER":"97.1730","MEAN_ANOMALY":"262.9476","EPHEMERIS_TYPE":"0","CLASSIFICATION_TYPE":"U","NORAD_CAT_ID":"46057","ELEMENT_SET_NO":"999","REV_AT_EPOCH":"1908","BSTAR":"0.00024026000000","MEAN_MOTION_DOT":"0.00003225","MEAN_MOTION_DDOT":"0.0000000000000","SEMIMAJOR_AXIS":"6927.791","PERIOD":"95.642","APOAPSIS":"550.983","PERIAPSIS":"548.330","OBJECT_TYPE":"PAYLOAD","RCS_SIZE":"LARGE","COUNTRY_CODE":"US","LAUNCH_DATE":"2020-08-07","SITE":"AFETR","DECAY_DATE":null,"FILE":"2896233","GP_ID":"166761316","TLE_LINE0":"0 STARLINK-1562","TLE_LINE1":"1 46057U 20055AG  20337.11148236  .00003225  00000-0  24026-3 0  9994","TLE_LINE2":"2 46057  53.0034 111.8947 0001915  97.1730 262.9476 15.05603163 19087"},{"CCSDS_OMM_VERS":"2.0","COMMENT":"GENERATED VIA SPACE-TRACK.ORG API","CREATION_DATE":"2020-12-02T19:24:44","ORIGINATOR":"18 SPCS","OBJECT_NAME":"STARLINK-1580","OBJECT_ID":"2020-055Q","CENTER_NAME":"EARTH","REF_FRAME":"TEME","TIME_SYSTEM":"UTC","MEAN_ELEMENT_THEORY":"SGP4","EPOCH":"2020-12-02T02:43:13.567872","MEAN_MOTION":"15.05577296","ECCENTRICITY":"0.00021980","INCLINATION":"53.0039","RA_OF_ASC_NODE":"121.8800","ARG_OF_PERICENTER":"87.1329","MEAN_ANOMALY":"272.9910","EPHEMERIS_TYPE":"0","CLASSIFICATION_TYPE":"U","NORAD_CAT_ID":"46041","ELEMENT_SET_NO":"999","REV_AT_EPOCH":"1893","BSTAR":"0.00011793000000","MEAN_MOTION_DOT":"0.00001439","MEAN_MOTION_DDOT":"0.0000000000000","SEMIMAJOR_AXIS":"6927.871","PERIOD":"95.644","APOAPSIS":"551.258","PERIAPSIS":"548.213","OBJECT_TYPE":"PAYLOAD","RCS_SIZE":"LARGE","COUNTRY_CODE":"US","LAUNCH_DATE":"2020-08-07","SITE":"AFETR","DECAY_DATE":null,"FILE":"2896233","GP_ID":"166761314","TLE_LINE0":"0 STARLINK-1580","TLE_LINE1":"1 46041U 20055Q   20337.11335148  .00001439  00000-0  11793-3 0  9999","TLE_LINE2":"2 46041  53.0039 121.8800 0002198  87.1329 272.9910 15.05577296 18935"},{"CCSDS_OMM_VERS":"2.0","COMMENT":"GENERATED VIA SPACE-TRACK.ORG API","CREATION_DATE":"2020-12-02T18:56:12","ORIGINATOR":"18 SPCS","OBJECT_NAME":"STARLINK-1542","OBJECT_ID":"2020-055AY","CENTER_NAME":"EARTH","REF_FRAME":"TEME","TIME_SYSTEM":"UTC","MEAN_ELEMENT_THEORY":"SGP4","EPOCH":"2020-12-02T02:44:45.724704","MEAN_MOTION":"15.05584627","ECCENTRICITY":"0.00013460","INCLINATION":"53.0023","RA_OF_ASC_NODE":"91.8721","ARG_OF_PERICENTER":"101.1152","MEAN_ANOMALY":"258.9987","EPHEMERIS_TYPE":"0","CLASSIFICATION_TYPE":"U","NORAD_CAT_ID":"46073","ELEMENT_SET_NO":"999","REV_AT_EPOCH":"1885","BSTAR":"0.00022059000000","MEAN_MOTION_DOT":"0.00002936","MEAN_MOTION_DDOT":"0.0000000000000","SEMIMAJOR_AXIS":"6927.848","PERIOD":"95.643","APOAPSIS":"550.646","PERIAPSIS":"548.781","OBJECT_TYPE":"PAYLOAD","RCS_SIZE":"LARGE","COUNTRY_CODE":"US","LAUNCH_DATE":"2020-08-07","SITE":"AFETR","DECAY_DATE":null,"FILE":"2895911","GP_ID":"166734497","TLE_LINE0":"0 STARLINK-1542","TLE_LINE1":"1 46073U 20055AY  20337.11441811  .00002936  00000-0  22059-3 0  9999","TLE_LINE2":"2 46073  53.0023  91.8721 0001346 101.1152 258.9987 15.05584627 18851"},{"CCSDS_OMM_VERS":"2.0","COMMENT":"GENERATED VIA SPACE-TRACK.ORG API","CREATION_DATE":"2020-12-02T18:56:12","ORIGINATOR":"18 SPCS","OBJECT_NAME":"STARLINK-1573","OBJECT_ID":"2020-055AL","CENTER_NAME":"EARTH","REF_FRAME":"TEME","TIME_SYSTEM":"UTC","MEAN_ELEMENT_THEORY":"SGP4","EPOCH":"2020-12-02T02:46:23.179584","MEAN_MOTION":"15.06393638","ECCENTRICITY":"0.00043630","INCLINATION":"53.0171","RA_OF_ASC_NODE":"111.8485","ARG_OF_PERICENTER":"90.7090","MEAN_ANOMALY":"269.4398","EPHEMERIS_TYPE":"0","CLASSIFICATION_TYPE":"U","NORAD_CAT_ID":"46061","ELEMENT_SET_NO":"999","REV_AT_EPOCH":"1856","BSTAR":"-0.00000236810000","MEAN_MOTION_DOT":"-0.00000318","MEAN_MOTION_DDOT":"0.0000000000000","SEMIMAJOR_AXIS":"6925.368","PERIOD":"95.592","APOAPSIS":"550.254","PERIAPSIS":"544.211","OBJECT_TYPE":"PAYLOAD","RCS_SIZE":"LARGE","COUNTRY_CODE":"US","LAUNCH_DATE":"2020-08-07","SITE":"AFETR","DECAY_DATE":null,"FILE":"2895941","GP_ID":"166735471","TLE_LINE0":"0 STARLINK-1573","TLE_LINE1":"1 46061U 20055AL  20337.11554606 -.00000318  00000-0 -23681-5 0  9991","TLE_LINE2":"2 46061  53.0171 111.8485 0004363  90.7090 269.4398 15.06393638 18560"},{"CCSDS_OMM_VERS":"2.0","COMMENT":"GENERATED VIA SPACE-TRACK.ORG API","CREATION_DATE":"2020-12-02T19:24:44","ORIGINATOR":"18 SPCS","OBJECT_NAME":"STARLINK-1573","OBJECT_ID":"2020-055AL","CENTER_NAME":"EARTH","REF_FRAME":"TEME","TIME_SYSTEM":"UTC","MEAN_ELEMENT_THEORY":"SGP4","EPOCH":"2020-12-02T02:46:23.179584","MEAN_MOTION":"15.06393638","ECCENTRICITY":"0.00043630","INCLINATION":"53.0171","RA_OF_ASC_NODE":"111.8485","ARG_OF_PERICENTER":"90.7090","MEAN_ANOMALY":"269.4398","EPHEMERIS_TYPE":"0","CLASSIFICATION_TYPE":"U","NORAD_CAT_ID":"46061","ELEMENT_SET_NO":"999","REV_AT_EPOCH":"1910","BSTAR":"-0.00000236810000","MEAN_MOTION_DOT":"-0.00000318","MEAN_MOTION_DDOT":"0.0000000000000","SEMIMAJOR_AXIS":"6925.368","PERIOD":"95.592","APOAPSIS":"550.254","PERIAPSIS":"544.211","OBJECT_TYPE":"PAYLOAD","RCS_SIZE":"LARGE","COUNTRY_CODE":"US","LAUNCH_DATE":"2020-08-07","SITE":"AFETR","DECAY_DATE":null,"FILE":"2896233","GP_ID":"166761778","TLE_LINE0":"0 STARLINK-1573","TLE_LINE1":"1 46061U 20055AL  20337.11554606 -.00000318  00000-0 -23681-5 0  9991","TLE_LINE2":"2 46061  53.0171 111.8485 0004363  90.7090 269.4398 15.06393638 19101"},{"CCSDS_OMM_VERS":"2.0","COMMENT":"GENERATED VIA SPACE-TRACK.ORG API","CREATION_DATE":"2020-12-02T19:24:44","ORIGINATOR":"18 SPCS","OBJECT_NAME":"STARLINK-1591","OBJECT_ID":"2020-055U","CENTER_NAME":"EARTH","REF_FRAME":"TEME","TIME_SYSTEM":"UTC","MEAN_ELEMENT_THEORY":"SGP4","EPOCH":"2020-12-02T02:48:00.510048","MEAN_MOTION":"15.05578350","ECCENTRICITY":"0.00020280","INCLINATION":"53.0024","RA_OF_ASC_NODE":"121.8725","ARG_OF_PERICENTER":"101.1314","MEAN_ANOMALY":"258.9902","EPHEMERIS_TYPE":"0","CLASSIFICATION_TYPE":"U","NORAD_CAT_ID":"46045","ELEMENT_SET_NO":"999","REV_AT_EPOCH":"1894","BSTAR":"-0.00004010700000","MEAN_MOTION_DOT":"-0.00000864","MEAN_MOTION_DDOT":"0.0000000000000","SEMIMAJOR_AXIS":"6927.867","PERIOD":"95.644","APOAPSIS":"551.137","PERIAPSIS":"548.327","OBJECT_TYPE":"PAYLOAD","RCS_SIZE":"LARGE","COUNTRY_CODE":"US","LAUNCH_DATE":"2020-08-07","SITE":"AFETR","DECAY_DATE":null,"FILE":"2896233","GP_ID":"166761776","TLE_LINE0":"0 STARLINK-1591","TLE_LINE1":"1 46045U 20055U   20337.11667257 -.00000864  00000-0 -40107-4 0  9997","TLE_LINE2":"2 46045  53.0024 121.8725 0002028 101.1314 258.9902 15.05578350 18940"},{"CCSDS_OMM_VERS":"2.0","COMMENT":"GENERATED VIA SPACE-TRACK.ORG API","CREATION_DATE":"2020-12-02T18:56:12","ORIGINATOR":"18 SPCS","OBJECT_NAME":"STARLINK-1564","OBJECT_ID":"2020-055AH","CENTER_NAME":"EARTH","REF_FRAME":"TEME","TIME_SYSTEM":"UTC","MEAN_ELEMENT_THEORY":"SGP4","EPOCH":"2020-12-02T02:51:53.835840","MEAN_MOTION":"15.06182697","ECCENTRICITY":"0.00032870","INCLINATION":"53.0143","RA_OF_ASC_NODE":"111.8371","ARG_OF_PERICENTER":"71.1634","MEAN_ANOMALY":"288.9711","EPHEMERIS_TYPE":"0","CLASSIFICATION_TYPE":"U","NORAD_CAT_ID":"46058","ELEMENT_SET_NO":"999","REV_AT_EPOCH":"1857","BSTAR":"0.00014245000000","MEAN_MOTION_DOT":"0.00001828","MEAN_MOTION_DDOT":"0.0000000000000","SEMIMAJOR_AXIS":"6926.014","PERIOD":"95.605","APOAPSIS":"550.156","PERIAPSIS":"545.603","OBJECT_TYPE":"PAYLOAD","RCS_SIZE":"LARGE","COUNTRY_CODE":"US","LAUNCH_DATE":"2020-08-07","SITE":"AFETR","DECAY_DATE":null,"FILE":"2895963","GP_ID":"166734429","TLE_LINE0":"0 STARLINK-1564","TLE_LINE1":"1 46058U 20055AH  20337.11937310  .00001828  00000-0  14245-3 0  9993","TLE_LINE2":"2 46058  53.0143 111.8371 0003287  71.1634 288.9711 15.06182697 18577"}]